NORAD_CAT_ID,OBJECT_NAME,OBJECT_TYPE,EPOCH,MEAN_MOTION,ECCENTRICITY,INCLINATION,RA_OF_ASC_NODE,ARG_OF_PERICENTER,MEAN_ANOMALY,BSTAR,MEAN_MOTION_DOT,MEAN_MOTION_DDOT,TLE_LINE0,TLE_LINE1,TLE_LINE2,SEMIMAJOR_AXIS,PERIOD,APOGEE,PERIGEE,DECAYED
54202.0,STARLINK-5205,PAYLOAD,2023-11-02 19:45:40,15.08839408,0.0001717,53.2177,244.9229,80.7487,279.37,2.6212e-05,1.29e-06,0.0,0 STARLINK-5205,1 54202U 22141AX  23306.82338569  .00000129  00000-0  26212-4 0  9990,2 54202  53.2177 244.9229 0001717  80.7487 279.3700 15.08839408 56726,6917.882,95.438,540.935,538.559,0.0
54202.0,STARLINK-5205,PAYLOAD,2023-11-03 13:14:54,15.08845277,0.0001533,53.2168,241.649,85.815,274.3017,0.00018018,2.581e-05,0.0,0 STARLINK-5205,1 54202U 22141AX  23307.55202394  .00002581  00000-0  18018-3 0  9995,2 54202  53.2168 241.6490 0001533  85.8150 274.3017 15.08845277 56603,6917.864,95.437,540.79,538.669,0.0
54202.0,STARLINK-5205,PAYLOAD,2023-11-03 19:36:27,15.08840792,0.0001641,53.2165,240.4619,80.959,279.1587,0.00020402,2.961e-05,0.0,0 STARLINK-5205,1 54202U 22141AX  23307.81698702  .00002961  00000-0  20402-3 0  9998,2 54202  53.2165 240.4619 0001641  80.9590 279.1587 15.08840792 56640,6917.878,95.438,540.878,538.608,0.0
54202.0,STARLINK-5205,PAYLOAD,2023-11-04 01:58:00,15.08845106,0.0001518,53.2165,239.2712,88.9684,271.1482,0.00023224,3.411e-05,0.0,0 STARLINK-5205,1 54202U 22141AX  23308.08194517  .00003411  00000-0  23224-3 0  9999,2 54202  53.2165 239.2712 0001518  88.9684 271.1482 15.08845106 56915,6917.865,95.437,540.78,538.68,0.0
54202.0,STARLINK-5205,PAYLOAD,2023-11-04 13:05:42,15.08838707,0.000158,53.2172,237.1897,84.3019,275.8153,9.5367e-05,1.23e-05,0.0,0 STARLINK-5205,1 54202U 22141AX  23308.54562798  .00001230  00000-0  95367-4 0  9995,2 54202  53.2172 237.1897 0001580  84.3019 275.8153 15.08838707 56752,6917.884,95.438,540.842,538.656,0.0
54202.0,STARLINK-5205,PAYLOAD,2023-11-04 22:38:01,15.08839795,0.0001576,53.2165,235.4051,87.8896,272.2276,0.00010532,1.389e-05,0.0,0 STARLINK-5205,1 54202U 22141AX  23308.94306832  .00001389  00000-0  10532-3 0  9999,2 54202  53.2165 235.4051 0001576  87.8896 272.2276 15.08839795 56815,6917.881,95.438,540.836,538.656,0.0
54202.0,STARLINK-5205,PAYLOAD,2023-11-05 01:48:47,15.08843851,0.0001417,53.2163,234.8083,96.5094,263.606,0.00015169,2.127e-05,0.0,0 STARLINK-5205,1 54202U 22141AX  23309.07554589  .00002127  00000-0  15169-3 0  9990,2 54202  53.2163 234.8083 0001417  96.5094 263.6060 15.08843851 56837,6917.869,95.437,540.714,538.753,0.0
54202.0,STARLINK-5205,PAYLOAD,2023-11-05 22:28:46,15.08869342,0.0001325,53.2162,230.9439,93.5034,266.611,0.00063371,9.82e-05,0.0,0 STARLINK-5205,1 54202U 22141AX  23309.93665383  .00009820  00000-0  63371-3 0  9995,2 54202  53.2162 230.9439 0001325  93.5034 266.6110 15.08869342 56963,6917.791,95.436,540.572,538.739,0.0
54202.0,STARLINK-5205,PAYLOAD,2023-11-06 01:39:32,15.08900803,0.0001289,53.2162,230.3493,101.8928,258.2209,0.0017634,0.00027935,0.0,0 STARLINK-5205,1 54202U 22141AX  23310.06912960  .00027935  00000-0  17634-2 0  9994,2 54202  53.2162 230.3493 0001289 101.8928 258.2209 15.08900803 57214,6917.695,95.434,540.451,538.668,0.0
54202.0,STARLINK-5205,PAYLOAD,2023-11-06 04:50:18,15.08921765,0.0001261,53.2169,229.7529,101.1419,258.9715,0.0022945,0.000365,0.0,0 STARLINK-5205,1 54202U 22141AX  23310.20160172  .00036500  00000-0  22945-2 0  9999,2 54202  53.2169 229.7529 0001261 101.1419 258.9715 15.08921765 57232,6917.63,95.432,540.368,538.623,0.0
54202.0,STARLINK-5205,PAYLOAD,2023-11-06 22:19:32,15.08855301,0.0001413,53.2165,226.4831,128.1023,232.0097,0.0001716,2.445e-05,0.0,0 STARLINK-5205,1 54202U 22141AX  23310.93024265  .00002445  00000-0  17160-3 0  9996,2 54202  53.2165 226.4831 0001413 128.1023 232.0097 15.08855301 57112,6917.834,95.437,540.676,538.721,0.0
54202.0,STARLINK-5205,PAYLOAD,2023-11-07 01:30:20,15.08779298,0.0001128,53.2162,225.8897,87.6397,272.4724,-0.00041629,-6.896e-05,0.0,0 STARLINK-5205,1 54202U 22141AX  23311.06273348 -.00006896  00000-0 -41629-3 0  9992,2 54202  53.2162 225.8897 0001128  87.6397 272.4724 15.08779298 57362,6918.066,95.441,540.711,539.151,0.0
54202.0,STARLINK-5205,PAYLOAD,2023-11-07 11:02:39,15.08798793,0.0001221,53.2164,224.106,97.7807,262.3323,-0.00013135,-2.375e-05,0.0,0 STARLINK-5205,1 54202U 22141AX  23311.46018506 -.00002375  00000-0 -13135-3 0  9998,2 54202  53.2164 224.1060 0001221  97.7807 262.3323 15.08798793 57421,6918.006,95.44,540.716,539.027,0.0
54202.0,STARLINK-5205,PAYLOAD,2023-11-08 02:56:32,15.08831569,0.0001184,53.2164,221.1313,90.0491,270.0637,0.0015548,0.00024537,0.0,0 STARLINK-5205,1 54202U 22141AX  23312.12259668  .00024537  00000-0  15548-2 0  9999,2 54202  53.2164 221.1313 0001184  90.0491 270.0637 15.08831569 57526,6917.906,95.438,540.59,538.952,0.0
54202.0,STARLINK-5205,PAYLOAD,2023-11-08 22:01:09,15.08850212,0.0001165,53.2162,217.5641,103.2067,256.9055,0.00059688,9.227e-05,0.0,0 STARLINK-5205,1 54202U 22141AX  23312.91747229  .00009227  00000-0  59688-3 0  9994,2 54202  53.2162 217.5641 0001165 103.2067 256.9055 15.08850212 57413,6917.849,95.437,540.52,538.908,0.0
54202.0,STARLINK-5205,PAYLOAD,2023-11-09 02:47:18,15.0886522,0.0001154,53.2162,216.6723,105.0312,255.0808,0.0010069,0.00015784,0.0,0 STARLINK-5205,1 54202U 22141AX  23313.11618929  .00015784  00000-0  10069-2 0  9995,2 54202  53.2162 216.6723 0001154 105.0312 255.0808 15.08865220 57674,6917.803,95.436,540.467,538.87,0.0
54202.0,STARLINK-5205,PAYLOAD,2023-11-09 21:51:56,15.08826898,9e-05,53.2157,213.1129,81.4844,278.6251,-0.00066845,-0.00010906,0.0,0 STARLINK-5205,1 54202U 22141AX  23313.91107222 -.00010906  00000-0 -66845-3 0  9999,2 54202  53.2157 213.1129 0000900  81.4844 278.6251 15.08826898 57564,6917.92,95.438,540.408,539.163,0.0
54202.0,STARLINK-5205,PAYLOAD,2023-11-09 23:27:19,15.08849548,0.0001298,53.2166,212.803,108.277,251.8363,0.00031038,4.657e-05,0.0,0 STARLINK-5205,1 54202U 22141AX  23313.97730851  .00004657  00000-0  31038-3 0  9995,2 54202  53.2166 212.8030 0001298 108.2770 251.8363 15.08849548 57809,6917.851,95.437,540.614,538.818,0.0
54202.0,STARLINK-5205,PAYLOAD,2023-11-10 10:35:01,15.08842923,0.0001354,53.2168,210.7235,92.2073,267.9075,0.00029249,4.37e-05,0.0,0 STARLINK-5205,1 54202U 22141AX  23314.44099070  .00004370  00000-0  29249-3 0  9992,2 54202  53.2168 210.7235 0001354  92.2073 267.9075 15.08842923 57871,6917.871,95.437,540.673,538.8,0.0
54202.0,STARLINK-5205,PAYLOAD,2023-11-11 10:25:48,15.08835741,0.0001606,53.2168,206.263,98.534,261.5834,2.591e-05,1.24e-06,0.0,0 STARLINK-5205,1 54202U 22141AX  23315.43459437  .00000124  00000-0  25910-4 0  9994,2 54202  53.2168 206.2630 0001606  98.5340 261.5834 15.08835741 58027,6917.893,95.438,540.869,538.647,0.0
54202.0,STARLINK-5205,PAYLOAD,2023-11-11 21:33:31,15.08835615,0.0001382,53.2162,204.181,95.1988,264.9162,7.5134e-05,9.08e-06,0.0,0 STARLINK-5205,1 54202U 22141AX  23315.89827694  .00000908  00000-0  75134-4 0  9991,2 54202  53.2162 204.1810 0001382  95.1988 264.9162 15.08835615 57862,6917.894,95.438,540.715,538.803,0.0
54202.0,STARLINK-5205,PAYLOAD,2023-11-12 10:16:36,15.08835737,0.000126,53.2168,201.8028,93.9153,266.1983,8.2221e-05,1.021e-05,0.0,0 STARLINK-5205,1 54202U 22141AX  23316.42820001  .00001021  00000-0  82221-4 0  9998,2 54202  53.2168 201.8028 0001260  93.9153 266.1983 15.08835737 57947,6917.893,95.438,540.63,538.887,0.0
54202.0,STARLINK-5205,PAYLOAD,2023-11-12 19:48:55,15.0883549,0.0001312,53.2158,200.0199,88.9784,271.1358,0.00012625,1.722e-05,0.0,0 STARLINK-5205,1 54202U 22141AX  23316.82564278  .00001722  00000-0  12625-3 0  9991,2 54202  53.2158 200.0199 0001312  88.9784 271.1358 15.08835490 58239,6917.894,95.438,540.667,538.852,0.0
54202.0,STARLINK-5205,PAYLOAD,2023-11-12 21:24:18,15.08835626,0.0001317,53.2159,199.7225,89.33,270.7843,0.00012385,1.683e-05,0.0,0 STARLINK-5205,1 54202U 22141AX  23316.89188276  .00001683  00000-0  12385-3 0  9997,2 54202  53.2159 199.7225 0001317  89.3300 270.7843 15.08835626 58019,6917.894,95.438,540.67,538.848,0.0
54202.0,STARLINK-5205,PAYLOAD,2023-11-13 02:10:27,15.08842999,0.0001438,53.2164,198.8287,95.2992,264.8164,0.00010513,1.386e-05,0.0,0 STARLINK-5205,1 54202U 22141AX  23317.09059926  .00001386  00000-0  10513-3 0  9990,2 54202  53.2164 198.8287 0001438  95.2992 264.8164 15.08842999 58279,6917.871,95.437,540.731,538.741,0.0
54202.0,STARLINK-5205,PAYLOAD,2023-11-13 22:50:28,15.08847563,0.0001418,53.2159,194.9635,92.4155,267.7,0.00025251,3.734e-05,0.0,0 STARLINK-5205,1 54202U 22141AX  23317.95171718  .00003734  00000-0  25251-3 0  9993,2 54202  53.2159 194.9635 0001418  92.4155 267.7000 15.08847563 58177,6917.857,95.437,540.703,538.741,0.0
54202.0,STARLINK-5205,PAYLOAD,2023-11-14 08:22:47,15.0884584,0.0001413,53.2159,193.1797,91.9546,268.1608,0.00019618,2.836e-05,0.0,0 STARLINK-5205,1 54202U 22141AX  23318.34915682  .00002836  00000-0  19618-3 0  9995,2 54202  53.2159 193.1797 0001413  91.9546 268.1608 15.08845840 58467,6917.863,95.437,540.705,538.75,0.0
54202.0,STARLINK-5205,PAYLOAD,2023-11-14 16:19:43,15.08839644,0.0001686,53.217,191.6939,95.387,264.7314,6.9249e-05,8.14e-06,0.0,0 STARLINK-5205,1 54202U 22141AX  23318.68036008  .00000814  00000-0  69249-4 0  9998,2 54202  53.2170 191.6939 0001686  95.3870 264.7314 15.08839644 58518,6917.881,95.438,540.913,538.58,0.0
54202.0,STARLINK-5205,PAYLOAD,2023-11-14 22:41:15,15.08840146,0.0001698,53.2169,190.5048,95.1539,264.9647,5.2774e-05,5.52e-06,0.0,0 STARLINK-5205,1 54202U 22141AX  23318.94531930  .00000552  00000-0  52774-4 0  9995,2 54202  53.2169 190.5048 0001698  95.1539 264.9647 15.08840146 58327,6917.88,95.438,540.92,538.57,0.0
54202.0,STARLINK-5205,PAYLOAD,2023-11-15 01:52:01,15.0883897,0.0001675,53.2166,189.9106,97.2028,262.9154,2.4369e-05,1e-06,0.0,0 STARLINK-5205,1 54202U 22141AX  23319.07779958  .00000100  00000-0  24369-4 0  9992,2 54202  53.2166 189.9106 0001675  97.2028 262.9154 15.08838970 58347,6917.884,95.438,540.907,538.59,0.0
